GOES 1 (SMS-C)          
1 08366U 75100A   26063.13312757 -.00000003  00000+0  00000+0 0  9994
2 08366   4.8753 278.7534 0005420 359.8228 170.6193  1.00237378184018
GOES 2                  
1 10061U 77048A   26062.96622332 -.00000274  00000+0  00000+0 0  9995
2 10061   6.6702 294.2228 0013890  47.6111 284.7400  0.99397546 45221
GOES 3                  
1 10953U 78062A   26062.90347634 -.00000274  00000+0  00000+0 0  9995
2 10953   7.1399 300.0516 0002826 355.1799 351.7656  0.99365964127487
GOES 4                  
1 11964U 80074A   26063.07558064 -.00000245  00000+0  00000+0 0  9992
2 11964   8.2129 303.7336 0032096 103.0312  91.1211  0.99231191126391
GOES 5                  
1 12472U 81049A   26063.13945427 -.00000204  00000+0  00000+0 0  9995
2 12472   9.5464 316.3440 0004660 336.9727 190.1982  1.00211544121798
GOES 6                  
1 14050U 83041A   26062.32956686 -.00000082  00000+0  00000+0 0  9996
2 14050  10.3592 321.9070 0002360 306.4375 262.1209  1.00217666214955
GOES 7                  
1 17561U 87022A   26062.40572343  .00000068  00000+0  00000+0 0  9995
2 17561  13.0217 338.3812 0003943  14.6167 182.3930  0.99894387125908
GOES 8                  
1 23051U 94022A   26063.11926084 -.00000247  00000+0  00000+0 0  9998
2 23051  14.3402  14.4723 0004992  14.2509 345.4738  0.98908183123087
GOES 9                  
1 23581U 95025A   26062.78528179 -.00000099  00000+0  00000+0 0  9990
2 23581  13.8692  15.3176 0003648 210.9063 141.1665  0.98798832111714
GOES 10                 
1 24786U 97019A   26062.81994862 -.00000105  00000+0  00000+0 0  9991
2 24786  13.0034  21.8516 0031183 239.2095 294.1816  0.99122327105023
GOES 11                 
1 26352U 00022A   26062.92834979 -.00000124  00000+0  00000+0 0  9995
2 26352  11.5793  47.4483 0005945 254.4886 120.1146  0.99041062 51435
GOES 12                 
1 26871U 01031A   26062.86030993 -.00000211  00000+0  00000+0 0  9996
2 26871  11.9937  38.1473 0008760 295.8491  79.8206  0.99137434 89729
EWS-G1 (GOES 13)        
1 29155U 06018A   26063.13538093  .00000033  00000+0  00000+0 0  9990
2 29155   4.2603  77.7059 0062000 273.0394 110.1723  0.98784863 42217
GOES 14                 
1 35491U 09033A   26063.12567421  .00000116  00000+0  00000+0 0  9998
2 35491   1.4182  84.4254 0002238 297.9403  26.7353  1.00124205  5530
EWS-G2 (GOES 15)        
1 36411U 10008A   26063.09828742  .00000009  00000+0  00000+0 0  9998
2 36411   1.0083  85.1554 0001823  21.0559 154.5075  1.00269362 58585
GOES 16                 
1 41866U 16071A   26063.13624759 -.00000103  00000+0  00000+0 0  9997
2 41866   0.1467  90.1405 0002533 217.9627 158.1288  1.00271707 34051
GOES 17                 
1 43226U 18022A   26063.18586576 -.00000194  00000+0  00000+0 0  9996
2 43226   0.6676  87.5597 0002262 221.3824 190.3972  1.00270371 29372
