[{"OBJECT_NAME":"GOES 1 (SMS-C)","OBJECT_ID":"1975-100A","EPOCH":"2026-03-04T03:11:42.222048","MEAN_MOTION":1.00237378,"ECCENTRICITY":0.000542,"INCLINATION":4.8753,"RA_OF_ASC_NODE":278.7534,"ARG_OF_PERICENTER":359.8228,"MEAN_ANOMALY":170.6193,"EPHEMERIS_TYPE":0,"CLASSIFICATION_TYPE":"U","NORAD_CAT_ID":8366,"ELEMENT_SET_NO":999,"REV_AT_EPOCH":18401,"BSTAR":0,"MEAN_MOTION_DOT":-3.0e-8,"MEAN_MOTION_DDOT":0},{"OBJECT_NAME":"GOES 2","OBJECT_ID":"1977-048A","EPOCH":"2026-03-03T23:11:21.694848","MEAN_MOTION":0.99397546,"ECCENTRICITY":0.001389,"INCLINATION":6.6702,"RA_OF_ASC_NODE":294.2228,"ARG_OF_PERICENTER":47.6111,"MEAN_ANOMALY":284.74,"EPHEMERIS_TYPE":0,"CLASSIFICATION_TYPE":"U","NORAD_CAT_ID":10061,"ELEMENT_SET_NO":999,"REV_AT_EPOCH":4522,"BSTAR":0,"MEAN_MOTION_DOT":-2.74e-6,"MEAN_MOTION_DDOT":0},{"OBJECT_NAME":"GOES 3","OBJECT_ID":"1978-062A","EPOCH":"2026-03-03T21:41:00.355776","MEAN_MOTION":0.99365964,"ECCENTRICITY":0.0002826,"INCLINATION":7.1399,"RA_OF_ASC_NODE":300.0516,"ARG_OF_PERICENTER":355.1799,"MEAN_ANOMALY":351.7656,"EPHEMERIS_TYPE":0,"CLASSIFICATION_TYPE":"U","NORAD_CAT_ID":10953,"ELEMENT_SET_NO":999,"REV_AT_EPOCH":12748,"BSTAR":0,"MEAN_MOTION_DOT":-2.74e-6,"MEAN_MOTION_DDOT":0},{"OBJECT_NAME":"GOES 4","OBJECT_ID":"1980-074A","EPOCH":"2026-03-04T01:48:50.167296","MEAN_MOTION":0.99231191,"ECCENTRICITY":0.0032096,"INCLINATION":8.2129,"RA_OF_ASC_NODE":303.7336,"ARG_OF_PERICENTER":103.0312,"MEAN_ANOMALY":91.1211,"EPHEMERIS_TYPE":0,"CLASSIFICATION_TYPE":"U","NORAD_CAT_ID":11964,"ELEMENT_SET_NO":999,"REV_AT_EPOCH":12639,"BSTAR":0,"MEAN_MOTION_DOT":-2.45e-6,"MEAN_MOTION_DDOT":0},{"OBJECT_NAME":"GOES 5","OBJECT_ID":"1981-049A","EPOCH":"2026-03-04T03:20:48.848928","MEAN_MOTION":1.00211544,"ECCENTRICITY":0.000466,"INCLINATION":9.5464,"RA_OF_ASC_NODE":316.344,"ARG_OF_PERICENTER":336.9727,"MEAN_ANOMALY":190.1982,"EPHEMERIS_TYPE":0,"CLASSIFICATION_TYPE":"U","NORAD_CAT_ID":12472,"ELEMENT_SET_NO":999,"REV_AT_EPOCH":12179,"BSTAR":0,"MEAN_MOTION_DOT":-2.04e-6,"MEAN_MOTION_DDOT":0},{"OBJECT_NAME":"GOES 6","OBJECT_ID":"1983-041A","EPOCH":"2026-03-03T07:54:34.576704","MEAN_MOTION":1.00217666,"ECCENTRICITY":0.00023608,"INCLINATION":10.3592,"RA_OF_ASC_NODE":321.907,"ARG_OF_PERICENTER":306.4375,"MEAN_ANOMALY":262.1209,"EPHEMERIS_TYPE":0,"CLASSIFICATION_TYPE":"U","NORAD_CAT_ID":14050,"ELEMENT_SET_NO":999,"REV_AT_EPOCH":21495,"BSTAR":0,"MEAN_MOTION_DOT":-8.2e-7,"MEAN_MOTION_DDOT":0},{"OBJECT_NAME":"GOES 7","OBJECT_ID":"1987-022A","EPOCH":"2026-03-03T09:44:14.504352","MEAN_MOTION":0.99894387,"ECCENTRICITY":0.00039437,"INCLINATION":13.0217,"RA_OF_ASC_NODE":338.3812,"ARG_OF_PERICENTER":14.6167,"MEAN_ANOMALY":182.393,"EPHEMERIS_TYPE":0,"CLASSIFICATION_TYPE":"U","NORAD_CAT_ID":17561,"ELEMENT_SET_NO":999,"REV_AT_EPOCH":12590,"BSTAR":0,"MEAN_MOTION_DOT":6.8e-7,"MEAN_MOTION_DDOT":0},{"OBJECT_NAME":"GOES 8","OBJECT_ID":"1994-022A","EPOCH":"2026-03-04T02:51:44.136576","MEAN_MOTION":0.98908183,"ECCENTRICITY":0.0004992,"INCLINATION":14.3402,"RA_OF_ASC_NODE":14.4723,"ARG_OF_PERICENTER":14.2509,"MEAN_ANOMALY":345.4738,"EPHEMERIS_TYPE":0,"CLASSIFICATION_TYPE":"U","NORAD_CAT_ID":23051,"ELEMENT_SET_NO":999,"REV_AT_EPOCH":12308,"BSTAR":0,"MEAN_MOTION_DOT":-2.47e-6,"MEAN_MOTION_DDOT":0},{"OBJECT_NAME":"GOES 9","OBJECT_ID":"1995-025A","EPOCH":"2026-03-03T18:50:48.346656","MEAN_MOTION":0.98798832,"ECCENTRICITY":0.00036482,"INCLINATION":13.8692,"RA_OF_ASC_NODE":15.3176,"ARG_OF_PERICENTER":210.9063,"MEAN_ANOMALY":141.1665,"EPHEMERIS_TYPE":0,"CLASSIFICATION_TYPE":"U","NORAD_CAT_ID":23581,"ELEMENT_SET_NO":999,"REV_AT_EPOCH":11171,"BSTAR":0,"MEAN_MOTION_DOT":-9.9e-7,"MEAN_MOTION_DDOT":0},{"OBJECT_NAME":"GOES 10","OBJECT_ID":"1997-019A","EPOCH":"2026-03-03T19:40:43.560768","MEAN_MOTION":0.99122327,"ECCENTRICITY":0.0031183,"INCLINATION":13.0034,"RA_OF_ASC_NODE":21.8516,"ARG_OF_PERICENTER":239.2095,"MEAN_ANOMALY":294.1816,"EPHEMERIS_TYPE":0,"CLASSIFICATION_TYPE":"U","NORAD_CAT_ID":24786,"ELEMENT_SET_NO":999,"REV_AT_EPOCH":10502,"BSTAR":0,"MEAN_MOTION_DOT":-1.05e-6,"MEAN_MOTION_DDOT":0},{"OBJECT_NAME":"GOES 11","OBJECT_ID":"2000-022A","EPOCH":"2026-03-03T22:16:49.421856","MEAN_MOTION":0.99041062,"ECCENTRICITY":0.0005945,"INCLINATION":11.5793,"RA_OF_ASC_NODE":47.4483,"ARG_OF_PERICENTER":254.4886,"MEAN_ANOMALY":120.1146,"EPHEMERIS_TYPE":0,"CLASSIFICATION_TYPE":"U","NORAD_CAT_ID":26352,"ELEMENT_SET_NO":999,"REV_AT_EPOCH":5143,"BSTAR":0,"MEAN_MOTION_DOT":-1.24e-6,"MEAN_MOTION_DDOT":0},{"OBJECT_NAME":"GOES 12","OBJECT_ID":"2001-031A","EPOCH":"2026-03-03T20:38:50.777952","MEAN_MOTION":0.99137434,"ECCENTRICITY":0.000876,"INCLINATION":11.9937,"RA_OF_ASC_NODE":38.1473,"ARG_OF_PERICENTER":295.8491,"MEAN_ANOMALY":79.8206,"EPHEMERIS_TYPE":0,"CLASSIFICATION_TYPE":"U","NORAD_CAT_ID":26871,"ELEMENT_SET_NO":999,"REV_AT_EPOCH":8972,"BSTAR":0,"MEAN_MOTION_DOT":-2.11e-6,"MEAN_MOTION_DDOT":0},{"OBJECT_NAME":"EWS-G1 (GOES 13)","OBJECT_ID":"2006-018A","EPOCH":"2026-03-04T03:14:56.912352","MEAN_MOTION":0.98784863,"ECCENTRICITY":0.0062,"INCLINATION":4.2603,"RA_OF_ASC_NODE":77.7059,"ARG_OF_PERICENTER":273.0394,"MEAN_ANOMALY":110.1723,"EPHEMERIS_TYPE":0,"CLASSIFICATION_TYPE":"U","NORAD_CAT_ID":29155,"ELEMENT_SET_NO":999,"REV_AT_EPOCH":4221,"BSTAR":0,"MEAN_MOTION_DOT":3.3e-7,"MEAN_MOTION_DDOT":0},{"OBJECT_NAME":"GOES 14","OBJECT_ID":"2009-033A","EPOCH":"2026-03-04T03:00:58.251744","MEAN_MOTION":1.00124205,"ECCENTRICITY":0.0002238,"INCLINATION":1.4182,"RA_OF_ASC_NODE":84.4254,"ARG_OF_PERICENTER":297.9403,"MEAN_ANOMALY":26.7353,"EPHEMERIS_TYPE":0,"CLASSIFICATION_TYPE":"U","NORAD_CAT_ID":35491,"ELEMENT_SET_NO":999,"REV_AT_EPOCH":553,"BSTAR":0,"MEAN_MOTION_DOT":1.16e-6,"MEAN_MOTION_DDOT":0},{"OBJECT_NAME":"EWS-G2 (GOES 15)","OBJECT_ID":"2010-008A","EPOCH":"2026-03-04T02:21:32.033088","MEAN_MOTION":1.00269362,"ECCENTRICITY":0.0001823,"INCLINATION":1.0083,"RA_OF_ASC_NODE":85.1554,"ARG_OF_PERICENTER":21.0559,"MEAN_ANOMALY":154.5075,"EPHEMERIS_TYPE":0,"CLASSIFICATION_TYPE":"U","NORAD_CAT_ID":36411,"ELEMENT_SET_NO":999,"REV_AT_EPOCH":5858,"BSTAR":0,"MEAN_MOTION_DOT":9.0e-8,"MEAN_MOTION_DDOT":0},{"OBJECT_NAME":"GOES 16","OBJECT_ID":"2016-071A","EPOCH":"2026-03-04T03:16:11.791776","MEAN_MOTION":1.00271707,"ECCENTRICITY":0.0002533,"INCLINATION":0.1467,"RA_OF_ASC_NODE":90.1405,"ARG_OF_PERICENTER":217.9627,"MEAN_ANOMALY":158.1288,"EPHEMERIS_TYPE":0,"CLASSIFICATION_TYPE":"U","NORAD_CAT_ID":41866,"ELEMENT_SET_NO":999,"REV_AT_EPOCH":3405,"BSTAR":0,"MEAN_MOTION_DOT":-1.03e-6,"MEAN_MOTION_DDOT":0},{"OBJECT_NAME":"GOES 17","OBJECT_ID":"2018-022A","EPOCH":"2026-03-04T04:27:38.801664","MEAN_MOTION":1.00270371,"ECCENTRICITY":0.0002262,"INCLINATION":0.6676,"RA_OF_ASC_NODE":87.5597,"ARG_OF_PERICENTER":221.3824,"MEAN_ANOMALY":190.3972,"EPHEMERIS_TYPE":0,"CLASSIFICATION_TYPE":"U","NORAD_CAT_ID":43226,"ELEMENT_SET_NO":999,"REV_AT_EPOCH":2937,"BSTAR":0,"MEAN_MOTION_DOT":-1.94e-6,"MEAN_MOTION_DDOT":0}]
